ONEWEB-0275             
1 48993U 21060AC  26185.40474119  .00000069  00000+0  14803-3 0  9997
2 48993  87.9084 225.3563 0001926  95.8096 264.3254 13.16595427241828
ONEWEB-0276             
1 48994U 21060AD  26185.36199221 -.00000035  00000+0 -12570-3 0  9995
2 48994  87.9083 225.3639 0001907  93.7308 266.4041 13.16593570241839
ONEWEB-0277             
1 48995U 21060AE  26185.37467113 -.00000057  00000+0 -18261-3 0  9992
2 48995  87.9077 225.3694 0002026  99.9785 260.1574 13.16594572241828
ONEWEB-0278             
1 48996U 21060AF  26185.36515949 -.00000044  00000+0 -14975-3 0  9997
2 48996  87.9087 225.3627 0002263  92.8617 267.2773 13.16593980241950
ONEWEB-0279             
1 48997U 21060AG  26185.37307539 -.00000001  00000+0 -35621-4 0  9998
2 48997  87.9082 225.3596 0001852 100.1806 259.9534 13.16593137241886
ONEWEB-0280             
1 48998U 21060AH  26185.38811861 -.00000007  00000+0 -51245-4 0  9994
2 48998  87.9077 225.3603 0002359 100.5683 259.5714 13.16594119241821
ONEWEB-0281             
1 48999U 21060AJ  26185.39365424  .00000018  00000+0  13807-4 0  9997
2 48999  87.9083 225.3544 0002074  93.7255 266.4113 13.16593350241898
ONEWEB-0282             
1 49000U 21060AK  26185.49974018  .00000042  00000+0  75118-4 0  9997
2 49000  87.9082 225.3414 0002126  98.4576 261.6796 13.16594129241881
ONEWEB-0283             
1 49001U 21060AL  26185.56464085  .00000133  00000+0  31362-3 0  9997
2 49001  87.9082 225.3279 0001932  98.6359 261.4991 13.16593090241900
ONEWEB-0284             
1 49002U 21060AM  26185.40632701  .00000203  00000+0  49608-3 0  9993
2 49002  87.9088 225.3532 0002441  96.7307 263.4102 13.16594087241865
ONEWEB-0285             
1 49075U 21075A   26185.21365687  .00000400  00000+0  10770-2 0  9990
2 49075  87.8959 347.2761 0002036  94.0252 266.1110 13.12443140237446
ONEWEB-0286             
1 49076U 21075B   26185.42441859  .00000246  00000+0  64945-3 0  9992
2 49076  87.8948 347.2494 0001840  86.8395 273.2945 13.12443345236820
ONEWEB-0287             
1 49077U 21075C   26184.94853381  .00000072  00000+0  15352-3 0  9991
2 49077  87.9134   2.5308 0002082  80.1030 280.0336 13.17650641235830
ONEWEB-0288             
1 49078U 21075D   26185.40082289 -.00000238  00000+0 -69823-3 0  9993
2 49078  87.8962 347.2324 0002008  89.8200 270.3158 13.12442118237445
ONEWEB-0289             
1 49079U 21075E   26185.21503188 -.00000020  00000+0 -84376-4 0  9999
2 49079  87.9142   2.4957 0002179  98.5122 261.6257 13.17648800236441
ONEWEB-0290             
1 49080U 21075F   26185.18817275  .00000012  00000+0 -27727-5 0  9990
2 49080  87.9146   2.4730 0002223 101.4486 258.6896 13.17650212235852
ONEWEB-0291             
1 49081U 21075G   26185.47671876  .00000032  00000+0  48650-4 0  9996
2 49081  87.9138   2.4223 0002211  87.8493 272.2892 13.17645994235885
ONEWEB-0293             
1 49082U 21075H   26185.50203588  .00000021  00000+0  19689-4 0  9990
2 49082  87.9138   2.4201 0001997  93.0061 267.1299 13.17649837235910
ONEWEB-0294             
1 49083U 21075J   26185.40760917 -.00000226  00000+0 -66459-3 0  9999
2 49083  87.8960 347.2348 0002097 100.1019 260.0346 13.12443495236834
ONEWEB-0295             
1 49084U 21075K   26185.50119752  .00000053  00000+0  10421-3 0  9990
2 49084  87.9136   2.4242 0002117  84.8494 275.2879 13.17649610235876
ONEWEB-0296             
1 49085U 21075L   26185.46352052 -.00000135  00000+0 -41004-3 0  9992
2 49085  87.8964 347.2314 0002113  89.3593 270.7778 13.12441596236845
ONEWEB-0297             
1 49086U 21075M   26185.41777502 -.00000036  00000+0 -13523-3 0  9994
2 49086  87.8950 347.2492 0001891  90.6954 269.4392 13.12443377237449
ONEWEB-0298             
1 49087U 21075N   26185.50556466  .00000003  00000+0 -24276-4 0  9990
2 49087  87.9136   2.4214 0001792  86.4424 273.6912 13.17648845235900
ONEWEB-0299             
1 49088U 21075P   26185.20334521 -.00000225  00000+0 -61237-3 0  9998
2 49088  87.9146   2.4637 0001959  85.6853 274.4503 13.17648584235841
ONEWEB-0300             
1 49089U 21075Q   26185.41014771 -.00000234  00000+0 -68644-3 0  9993
2 49089  87.8965 347.2322 0001514  85.5582 274.5719 13.12442760237469
ONEWEB-0301             
1 49090U 21075R   26185.39405239 -.00000282  00000+0 -81907-3 0  9995
2 49090  87.8958 347.2329 0001493  91.1511 268.9789 13.12442195236826
ONEWEB-0302             
1 49091U 21075S   26185.15178956  .00000056  00000+0  12136-3 0  9998
2 49091  87.8963 347.2934 0002116  96.6688 263.4681 13.12440668236771
ONEWEB-0304             
1 49092U 21075T   26185.25396946 -.00000011  00000+0 -60501-4 0  9994
2 49092  87.9137   2.4744 0001987  87.3962 272.7397 13.17650418235825
ONEWEB-0305             
1 49093U 21075U   26185.47503137  .00000042  00000+0  75854-4 0  9990
2 49093  87.9145   2.4163 0002084  81.0453 279.0914 13.17649967235883
ONEWEB-0308             
1 49094U 21075V   26185.44996375  .00000310  00000+0  82551-3 0  9997
2 49094  87.8960 347.2262 0001813  94.2119 265.9217 13.12441138236822
