OBJECT_NAME,OBJECT_ID,EPOCH,MEAN_MOTION,ECCENTRICITY,INCLINATION,RA_OF_ASC_NODE,ARG_OF_PERICENTER,MEAN_ANOMALY,EPHEMERIS_TYPE,CLASSIFICATION_TYPE,NORAD_CAT_ID,ELEMENT_SET_NO,REV_AT_EPOCH,BSTAR,MEAN_MOTION_DOT,MEAN_MOTION_DDOT
ONEWEB-0275,2021-060AC,2026-07-04T09:42:49.638816,13.16595427,.00019269,87.9084,225.3563,95.8096,264.3254,0,U,48993,999,24182,.14802706E-3,.69E-6,0
ONEWEB-0276,2021-060AD,2026-07-04T08:41:16.126944,13.16593570,.00019077,87.9083,225.3639,93.7308,266.4041,0,U,48994,999,24183,-.12569712E-3,-.35E-6,0
ONEWEB-0277,2021-060AE,2026-07-04T08:59:31.585632,13.16594572,.00020268,87.9077,225.3694,99.9785,260.1574,0,U,48995,999,24182,-.18261198E-3,-.57E-6,0
ONEWEB-0278,2021-060AF,2026-07-04T08:45:49.779936,13.16593980,.0002263,87.9087,225.3627,92.8617,267.2773,0,U,48996,999,24195,-.14975027E-3,-.44E-6,0
ONEWEB-0279,2021-060AG,2026-07-04T08:57:13.713696,13.16593137,.00018521,87.9082,225.3596,100.1806,259.9534,0,U,48997,999,24188,-.35620798E-4,-.1E-7,0
ONEWEB-0280,2021-060AH,2026-07-04T09:18:53.447904,13.16594119,.00023595,87.9077,225.3603,100.5683,259.5714,0,U,48998,999,24182,-.51245278E-4,-.7E-7,0
ONEWEB-0281,2021-060AJ,2026-07-04T09:26:51.726336,13.16593350,.00020741,87.9083,225.3544,93.7255,266.4113,0,U,48999,999,24189,.13806684E-4,.18E-6,0
ONEWEB-0282,2021-060AK,2026-07-04T11:59:37.551552,13.16594129,.00021267,87.9082,225.3414,98.4576,261.6796,0,U,49000,999,24188,.75117868E-4,.42E-6,0
ONEWEB-0283,2021-060AL,2026-07-04T13:33:04.969440,13.16593090,.0001932,87.9082,225.3279,98.6359,261.4991,0,U,49001,999,24190,.31362353E-3,.133E-5,0
ONEWEB-0284,2021-060AM,2026-07-04T09:45:06.653664,13.16594087,.00024411,87.9088,225.3532,96.7307,263.4102,0,U,49002,999,24186,.49608272E-3,.203E-5,0
ONEWEB-0285,2021-075A,2026-07-04T05:07:39.953568,13.12443140,.00020368,87.8959,347.2761,94.0252,266.1110,0,U,49075,999,23744,.10769695E-2,.4E-5,0
ONEWEB-0286,2021-075B,2026-07-04T10:11:09.766176,13.12443345,.00018403,87.8948,347.2494,86.8395,273.2945,0,U,49076,999,23682,.64944568E-3,.246E-5,0
ONEWEB-0287,2021-075C,2026-07-03T22:45:53.321184,13.17650641,.00020827,87.9134,2.5308,80.1030,280.0336,0,U,49077,999,23583,.15351639E-3,.72E-6,0
ONEWEB-0288,2021-075D,2026-07-04T09:37:11.097696,13.12442118,.00020087,87.8962,347.2324,89.8200,270.3158,0,U,49078,999,23744,-.69822569E-3,-.238E-5,0
ONEWEB-0289,2021-075E,2026-07-04T05:09:38.754432,13.17648800,.00021794,87.9142,2.4957,98.5122,261.6257,0,U,49079,999,23644,-.8437635E-4,-.2E-6,0
ONEWEB-0290,2021-075F,2026-07-04T04:30:58.125600,13.17650212,.00022236,87.9146,2.4730,101.4486,258.6896,0,U,49080,999,23585,-.2772687E-5,.12E-6,0
ONEWEB-0291,2021-075G,2026-07-04T11:26:28.500864,13.17645994,.00022119,87.9138,2.4223,87.8493,272.2892,0,U,49081,999,23588,.48650385E-4,.32E-6,0
ONEWEB-0293,2021-075H,2026-07-04T12:02:55.900032,13.17649837,.00019972,87.9138,2.4201,93.0061,267.1299,0,U,49082,999,23591,.19689314E-4,.21E-6,0
ONEWEB-0294,2021-075J,2026-07-04T09:46:57.432288,13.12443495,.00020973,87.8960,347.2348,100.1019,260.0346,0,U,49083,999,23683,-.66458847E-3,-.226E-5,0
ONEWEB-0295,2021-075K,2026-07-04T12:01:43.465728,13.17649610,.0002117,87.9136,2.4242,84.8494,275.2879,0,U,49084,999,23587,.10420663E-3,.53E-6,0
ONEWEB-0296,2021-075L,2026-07-04T11:07:28.172928,13.12441596,.00021139,87.8964,347.2314,89.3593,270.7778,0,U,49085,999,23684,-.41003956E-3,-.135E-5,0
ONEWEB-0297,2021-075M,2026-07-04T10:01:35.761728,13.12443377,.00018914,87.8950,347.2492,90.6954,269.4392,0,U,49086,999,23744,-.13522882E-3,-.36E-6,0
ONEWEB-0298,2021-075N,2026-07-04T12:08:00.786624,13.17648845,.00017927,87.9136,2.4214,86.4424,273.6912,0,U,49087,999,23590,-.24275531E-4,.3E-7,0
ONEWEB-0299,2021-075P,2026-07-04T04:52:49.026144,13.17648584,.00019597,87.9146,2.4637,85.6853,274.4503,0,U,49088,999,23584,-.61236812E-3,-.225E-5,0
ONEWEB-0300,2021-075Q,2026-07-04T09:50:36.762144,13.12442760,.0001514,87.8965,347.2322,85.5582,274.5719,0,U,49089,999,23746,-.68644253E-3,-.234E-5,0
ONEWEB-0301,2021-075R,2026-07-04T09:27:26.126496,13.12442195,.00014934,87.8958,347.2329,91.1511,268.9789,0,U,49090,999,23682,-.81907016E-3,-.282E-5,0
ONEWEB-0302,2021-075S,2026-07-04T03:38:34.617984,13.12440668,.0002116,87.8963,347.2934,96.6688,263.4681,0,U,49091,999,23677,.12136396E-3,.56E-6,0
ONEWEB-0304,2021-075T,2026-07-04T06:05:42.961344,13.17650418,.00019871,87.9137,2.4744,87.3962,272.7397,0,U,49092,999,23582,-.60500524E-4,-.11E-6,0
ONEWEB-0305,2021-075U,2026-07-04T11:24:02.710368,13.17649967,.00020849,87.9145,2.4163,81.0453,279.0914,0,U,49093,999,23588,.75854326E-4,.42E-6,0
ONEWEB-0308,2021-075V,2026-07-04T10:47:56.868000,13.12441138,.00018134,87.8960,347.2262,94.2119,265.9217,0,U,49094,999,23682,.82551274E-3,.31E-5,0
